{
  "type": "FeatureCollection",
  "features": [
    {
      "type": "Feature",
      "properties": {
        "norad_id": 41890,
        "name": "CYGFM07",
        "group": "weather",
        "lat": 0.9763450220953737,
        "lon": 104.48233681637295,
        "alt_km": 419.4063855186996,
        "timestamp": "2025-12-27T07:26:24.863865+00:00",
        "meta_object_name": "CYGFM07",
        "meta_object_id": "2016-078G",
        "meta_epoch": "2025-12-26T21:24:15.854688",
        "meta_mean_motion": 15.506177,
        "meta_eccentricity": 0.0009,
        "meta_inclination": 34.9473,
        "meta_ra_of_asc_node": 288.6249,
        "meta_arg_of_pericenter": 335.7371,
        "meta_mean_anomaly": 24.2927,
        "meta_ephemeris_type": 0,
        "meta_classification_type": "U",
        "meta_norad_cat_id": 41890,
        "meta_element_set_no": 999,
        "meta_rev_at_epoch": 50215,
        "meta_bstar": 0.0004403566,
        "meta_mean_motion_dot": 0.00026102,
        "meta_mean_motion_ddot": 0,
        "tle_line1": "1 41890U 16078G   25360.89185017  .00026102  00000+0  44036-3 0  9999",
        "tle_line2": "2 41890  34.9473 288.6249 0009000 335.7371  24.2927 15.50617700502152"
      },
      "geometry": {
        "type": "Point",
        "coordinates": [
          104.48233681637295,
          0.9763450220953737
        ]
      }
    },
    {
      "type": "Feature",
      "properties": {
        "norad_id": 41891,
        "name": "CYGFM03",
        "group": "weather",
        "lat": 4.298870999949167,
        "lon": -66.01107975518212,
        "alt_km": 408.9928118994985,
        "timestamp": "2025-12-27T07:26:24.863875+00:00",
        "meta_object_name": "CYGFM03",
        "meta_object_id": "2016-078H",
        "meta_epoch": "2025-12-26T22:08:11.250816",
        "meta_mean_motion": 15.50511994,
        "meta_eccentricity": 0.00088542,
        "meta_inclination": 34.9427,
        "meta_ra_of_asc_node": 290.3522,
        "meta_arg_of_pericenter": 322.2316,
        "meta_mean_anomaly": 37.7784,
        "meta_ephemeris_type": 0,
        "meta_classification_type": "U",
        "meta_norad_cat_id": 41891,
        "meta_element_set_no": 999,
        "meta_rev_at_epoch": 50213,
        "meta_bstar": 0.00044359179,
        "meta_mean_motion_dot": 0.00026194,
        "meta_mean_motion_ddot": 0,
        "tle_line1": "1 41891U 16078H   25360.92235244  .00026194  00000+0  44359-3 0  9991",
        "tle_line2": "2 41891  34.9427 290.3522 0008854 322.2316  37.7784 15.50511994502138"
      },
      "geometry": {
        "type": "Point",
        "coordinates": [
          -66.01107975518212,
          4.298870999949167
        ]
      }
    },
    {
      "type": "Feature",
      "properties": {
        "norad_id": 43010,
        "name": "FENGYUN 3D",
        "group": "weather",
        "lat": -80.59395347113447,
        "lon": 40.742690897783014,
        "alt_km": 834.4718532493434,
        "timestamp": "2025-12-27T07:26:24.863886+00:00",
        "meta_object_name": "FENGYUN 3D",
        "meta_object_id": "2017-072A",
        "meta_epoch": "2025-12-26T23:23:36.685824",
        "meta_mean_motion": 14.19688071,
        "meta_eccentricity": 0.00016459,
        "meta_inclination": 98.9917,
        "meta_ra_of_asc_node": 327.4993,
        "meta_arg_of_pericenter": 144.7263,
        "meta_mean_anomaly": 215.4022,
        "meta_ephemeris_type": 0,
        "meta_classification_type": "U",
        "meta_norad_cat_id": 43010,
        "meta_element_set_no": 999,
        "meta_rev_at_epoch": 42055,
        "meta_bstar": 0.00011275927,
        "meta_mean_motion_dot": 1.92e-06,
        "meta_mean_motion_ddot": 0,
        "tle_line1": "1 43010U 17072A   25360.97473016  .00000192  00000+0  11276-3 0  9999",
        "tle_line2": "2 43010  98.9917 327.4993 0001645 144.7263 215.4022 14.19688071420550"
      },
      "geometry": {
        "type": "Point",
        "coordinates": [
          40.742690897783014,
          -80.59395347113447
        ]
      }
    },
    {
      "type": "Feature",
      "properties": {
        "norad_id": 43013,
        "name": "NOAA 20 (JPSS-1)",
        "group": "weather",
        "lat": 55.43146885893865,
        "lon": -75.48485208307838,
        "alt_km": 820.1674445806284,
        "timestamp": "2025-12-27T07:26:24.863897+00:00",
        "meta_object_name": "NOAA 20 (JPSS-1)",
        "meta_object_id": "2017-073A",
        "meta_epoch": "2025-12-26T21:01:31.912320",
        "meta_mean_motion": 14.19529626,
        "meta_eccentricity": 0.00020522,
        "meta_inclination": 98.7616,
        "meta_ra_of_asc_node": 297.0193,
        "meta_arg_of_pericenter": 67.1348,
        "meta_mean_anomaly": 293.0045,
        "meta_ephemeris_type": 0,
        "meta_classification_type": "U",
        "meta_norad_cat_id": 43013,
        "meta_element_set_no": 999,
        "meta_rev_at_epoch": 42002,
        "meta_bstar": 7.979751e-05,
        "meta_mean_motion_dot": 1.24e-06,
        "meta_mean_motion_ddot": 0,
        "tle_line1": "1 43013U 17073A   25360.87606380  .00000124  00000+0  79798-4 0  9993",
        "tle_line2": "2 43013  98.7616 297.0193 0002052  67.1348 293.0045 14.19529626420025"
      },
      "geometry": {
        "type": "Point",
        "coordinates": [
          -75.48485208307838,
          55.43146885893865
        ]
      }
    },
    {
      "type": "Feature",
      "properties": {
        "norad_id": 43226,
        "name": "GOES 17",
        "group": "weather",
        "lat": 0.2574956549015731,
        "lon": 118.12788686825957,
        "alt_km": 35799.03981162355,
        "timestamp": "2025-12-27T07:26:24.863910+00:00",
        "meta_object_name": "GOES 17",
        "meta_object_id": "2018-022A",
        "meta_epoch": "2025-12-26T13:28:40.537056",
        "meta_mean_motion": 1.0027151,
        "meta_eccentricity": 0.0003196,
        "meta_inclination": 0.4913,
        "meta_ra_of_asc_node": 89.0151,
        "meta_arg_of_pericenter": 191.2344,
        "meta_mean_anomaly": 287.726,
        "meta_ephemeris_type": 0,
        "meta_classification_type": "U",
        "meta_norad_cat_id": 43226,
        "meta_element_set_no": 999,
        "meta_rev_at_epoch": 2869,
        "meta_bstar": 0,
        "meta_mean_motion_dot": -1.61e-06,
        "meta_mean_motion_ddot": 0,
        "tle_line1": "1 43226U 18022A   25360.56158029 -.00000161  00000+0  00000+0 0  9999",
        "tle_line2": "2 43226   0.4913  89.0151 0003196 191.2344 287.7260  1.00271510 28697"
      },
      "geometry": {
        "type": "Point",
        "coordinates": [
          118.12788686825957,
          0.2574956549015731
        ]
      }
    },
    {
      "type": "Feature",
      "properties": {
        "norad_id": 43491,
        "name": "FENGYUN 2H",
        "group": "weather",
        "lat": -1.1439366413852106,
        "lon": -73.04023058164269,
        "alt_km": 35778.529815060545,
        "timestamp": "2025-12-27T07:26:24.863959+00:00",
        "meta_object_name": "FENGYUN 2H",
        "meta_object_id": "2018-050A",
        "meta_epoch": "2025-12-26T21:58:14.697696",
        "meta_mean_motion": 1.00270039,
        "meta_eccentricity": 0.00024808,
        "meta_inclination": 2.5851,
        "meta_ra_of_asc_node": 81.1802,
        "meta_arg_of_pericenter": 167.1167,
        "meta_mean_anomaly": 256.2438,
        "meta_ephemeris_type": 0,
        "meta_classification_type": "U",
        "meta_norad_cat_id": 43491,
        "meta_element_set_no": 999,
        "meta_rev_at_epoch": 2771,
        "meta_bstar": 0,
        "meta_mean_motion_dot": -1.08e-06,
        "meta_mean_motion_ddot": 0,
        "tle_line1": "1 43491U 18050A   25360.91544789 -.00000108  00000+0  00000+0 0  9996",
        "tle_line2": "2 43491   2.5851  81.1802 0002480 167.1167 256.2438  1.00270039 27716"
      },
      "geometry": {
        "type": "Point",
        "coordinates": [
          -73.04023058164269,
          -1.1439366413852106
        ]
      }
    },
    {
      "type": "Feature",
      "properties": {
        "norad_id": 43689,
        "name": "METOP-C",
        "group": "weather",
        "lat": -58.88498771549149,
        "lon": 73.53424706513921,
        "alt_km": 827.2779477057938,
        "timestamp": "2025-12-27T07:26:24.863992+00:00",
        "meta_object_name": "METOP-C",
        "meta_object_id": "2018-087A",
        "meta_epoch": "2025-12-26T21:35:10.032288",
        "meta_mean_motion": 14.21489812,
        "meta_eccentricity": 5.343e-05,
        "meta_inclination": 98.691,
        "meta_ra_of_asc_node": 58.4506,
        "meta_arg_of_pericenter": 12.0595,
        "meta_mean_anomaly": 348.0595,
        "meta_ephemeris_type": 0,
        "meta_classification_type": "U",
        "meta_norad_cat_id": 43689,
        "meta_element_set_no": 999,
        "meta_rev_at_epoch": 37035,
        "meta_bstar": 9.0816692e-05,
        "meta_mean_motion_dot": 1.55e-06,
        "meta_mean_motion_ddot": 0,
        "tle_line1": "1 43689U 18087A   25360.89942167  .00000155  00000+0  90817-4 0  9995",
        "tle_line2": "2 43689  98.6910  58.4506 0000534  12.0595 348.0595 14.21489812370359"
      },
      "geometry": {
        "type": "Point",
        "coordinates": [
          73.53424706513921,
          -58.88498771549149
        ]
      }
    }
  ]
}